UNITID,INSTNM,CITY,STABBR,ZIP,AccredAgency,INSTURL,NPCURL,sch_deg,HCM2,LATITUDE,LONGITUDE,CCSIZSET,ADM_RATE
108269,Academy of Chinese Culture and Health Sciences,Oakland,CA,94612,Accreditation Commission for Acupuncture and Oriental Medicine,www.acchs.edu,www.acchs.edu,,0,37.8067,-122.2727,,
109086,American Conservatory Theater,San Francisco,CA,94108-5834,Western Association of Schools and Colleges Senior College and University Commission,www.act-sf.org,www.actaccess.org/netpricecalculator/npcalc.htm,,0,37.7873,-122.4049,,
109651,Art Center College of Design,Pasadena,CA,91103,Western Association of Schools and Colleges Senior College and University Commission,www.artcenter.edu,www.artcenter.edu/accd/admissions/financial_aid/net_price_calculator.jsp,,0,34.1708,-118.1869,,0.8167
109785,Azusa Pacific University,Azusa,CA,91702-7000,Western Association of Schools and Colleges Senior College and University Commission,www.apu.edu,www.apu.edu/sfs/undergraduate/cost/calculator/,,0,34.1309,-117.888,14,0.7985
110097,Biola University,La Mirada,CA,90639-0001,Western Association of Schools and Colleges Senior College and University Commission,www.biola.edu,undergrad.biola.edu/finaid/#net-price,,0,33.9048,-118.0173,14,0.7286
110307,Phillips Graduate Institute,Chatsworth,CA,91311,Western Association of Schools and Colleges Senior College and University Commission,pgi.edu,,,0,34.2427,-118.5677,,
110316,California Institute of Integral Studies,San Francisco,CA,94103,Western Association of Schools and Colleges Senior College and University Commission,www.ciis.edu,npc.collegeboard.org/student/app/ciis,,0,37.7748,-122.4165,9,
110361,California Baptist University,Riverside,CA,92504-3297,Western Association of Schools and Colleges Senior College and University Commission,www.calbaptist.edu,calbaptist.studentaidcalculator.com/welcome.aspx,,0,33.9286,-117.4259,14,0.788
110370,California College of the Arts,San Francisco,CA,94107-2247,Western Association of Schools and Colleges Senior College and University Commission,www.cca.edu,www.cca.edu/admissions/financialaid/calculator,,0,37.8357,-122.2514,,0.8157
110398,University of California-Hastings College of Law,San Francisco,CA,94102-4978,Western Association of Schools and Colleges Senior College and University Commission,www.uchastings.edu,,,0,37.7807,-122.4154,,
110404,California Institute of Technology,Pasadena,CA,91125,Western Association of Schools and Colleges Senior College and University Commission,www.caltech.edu,www.finaid.caltech.edu/,,0,34.1393,-118.1257,11,0.1055
110422,California Polytechnic State University-San Luis Obispo,San Luis Obispo,CA,93407,Western Association of Schools and Colleges Senior College and University Commission,calpoly.edu,www.csumentor.edu/finaid/pais/,,0,35.2989,-120.6586,16,0.3123
110468,Alliant International University,San Diego,CA,92131-1799,Western Association of Schools and Colleges Senior College and University Commission,www.alliant.edu,www.alliant.edu/_resources/net-price-cal/npcalc.htm,,0,32.8971,-117.0944,13,0.4922
110486,California State University-Bakersfield,Bakersfield,CA,93311-1099,Western Association of Schools and Colleges Senior College and University Commission,www.csub.edu,www.csumentor.edu/finaid/pais/,,0,35.35,-119.1047,12,0.6626
110495,California State University-Stanislaus,Turlock,CA,95382-0299,Western Association of Schools and Colleges Senior College and University Commission,www.csustan.edu,www.csumentor.edu/FinAid/PAIS/,,0,37.5258,-120.8525,12,0.7215
110510,California State University-San Bernardino,San Bernardino,CA,92407-2397,Western Association of Schools and Colleges Senior College and University Commission,www.csusb.edu,www.csumentor.edu/FinAid/pais/,,0,34.183,-117.3225,15,0.5831
110529,California State Polytechnic University-Pomona,Pomona,CA,91768,Western Association of Schools and Colleges Senior College and University Commission,www.csupomona.edu,www.csumentor.edu/finaid/pais/,,0,34.0543,-117.819,15,0.5218
110538,California State University-Chico,Chico,CA,95929-0150,Western Association of Schools and Colleges Senior College and University Commission,www.csuchico.edu,www.csuchico.edu/fa/awardInfo/cost.shtml,,0,39.728,-121.8463,15,0.7161
110547,California State University-Dominguez Hills,Carson,CA,90747-0005,Western Association of Schools and Colleges Senior College and University Commission,www.csudh.edu,www.csumentor.edu/finaid/pais/,,0,33.8652,-118.2593,15,0.5747
110556,California State University-Fresno,Fresno,CA,93740,Western Association of Schools and Colleges Senior College and University Commission,www.csufresno.edu,www.collegeportraits.org/CA/CSUFRESNO/costs,,0,36.8145,-119.7483,15,0.5815
110565,California State University-Fullerton,Fullerton,CA,92831-3599,Western Association of Schools and Colleges Senior College and University Commission,www.fullerton.edu,www.csumentor.edu/finaid/pais/,,0,33.8836,-117.8853,15,0.4579
110574,California State University-East Bay,Hayward,CA,94542,Western Association of Schools and Colleges Senior College and University Commission,www.csueastbay.edu,www20.csueastbay.edu/prospective/cost-and-financial-aid/cost-of-attendance/,,0,37.6571,-122.0581,15,0.6872
110583,California State University-Long Beach,Long Beach,CA,90840-0115,Western Association of Schools and Colleges Senior College and University Commission,www.csulb.edu,www.csumentor.edu/finaid/pais/,,0,33.7828,-118.1123,15,0.3082
110592,California State University-Los Angeles,Los Angeles,CA,90032,Western Association of Schools and Colleges Senior College and University Commission,www.calstatela.edu,www.csumentor.edu/finaid/pais/,,0,34.0669,-118.169,15,0.6752
110608,California State University-Northridge,Northridge,CA,91330,Western Association of Schools and Colleges Senior College and University Commission,www.csun.edu,www.csumentor.edu/finaid/pais/,,0,34.2367,-118.5268,15,0.4624
110617,California State University-Sacramento,Sacramento,CA,95819-2694,Western Association of Schools and Colleges Senior College and University Commission,www.csus.edu,www.csumentor.edu/finaid/pais/,,0,38.5575,-121.4219,15,0.6968
110635,University of California-Berkeley,Berkeley,CA,94720,Western Association of Schools and Colleges Senior College and University Commission,www.berkeley.edu,calculator.berkeley.edu/,,0,37.8715,-122.2604,16,0.18
110644,University of California-Davis,Davis,CA,95616-8678,Western Association of Schools and Colleges Senior College and University Commission,www.ucdavis.edu,financialaid.ucdavis.edu/aidEstimator/ucdcalcmain.aspx,,0,38.5399,-121.752,16,0.4521
110653,University of California-Irvine,Irvine,CA,92697,Western Association of Schools and Colleges Senior College and University Commission,www.uci.edu/,www.ofas.uci.edu/content/Calculator.aspx,,0,33.667,-117.7686,16,0.4239
110662,University of California-Los Angeles,Los Angeles,CA,90095-1405,Western Association of Schools and Colleges Senior College and University Commission,www.ucla.edu/,www.fao.ucla.edu/aid_estimator/,,0,34.0689,-118.4439,16,0.2199
110671,University of California-Riverside,Riverside,CA,92521,Western Association of Schools and Colleges Senior College and University Commission,WWW.UCR.EDU,www.finaidestimator.ucr.edu/,,0,33.9759,-117.3311,16,0.62
110680,University of California-San Diego,La Jolla,CA,92093,Western Association of Schools and Colleges Senior College and University Commission,www.ucsd.edu,students.ucsd.edu/finances/financial-aid/forms/calculator.html,,0,32.8766,-117.2378,16,0.375
110699,University of California-San Francisco,San Francisco,CA,94143-0244,Western Association of Schools and Colleges Senior College and University Commission,www.ucsf.edu,,,0,37.7627,-122.458,,
110705,University of California-Santa Barbara,Santa Barbara,CA,93106,Western Association of Schools and Colleges Senior College and University Commission,www.ucsb.edu,www.finaid.ucsb.edu/Prospective/AidEstimator.aspx,,0,34.4155,-119.8481,16,0.4444
110714,University of California-Santa Cruz,Santa Cruz,CA,95064-1011,Western Association of Schools and Colleges Senior College and University Commission,www.ucsc.edu/,www2.ucsc.edu/finaidcalc/calculator/index.php,,0,36.9973,-122.068,16,0.5991
110778,Sofia University,Palo Alto,CA,94303,Western Association of Schools and Colleges Senior College and University Commission,www.sofia.edu,www.sofia.edu/admissions/loancalculator.php,,0,37.4303,-122.1087,,
111081,California Institute of the Arts,Valencia,CA,91355-2397,Western Association of Schools and Colleges Senior College and University Commission,www.calarts.edu,www.calarts.edu,,0,34.3933,-118.5673,,0.2992
111948,Chapman University,Orange,CA,92866,Western Association of Schools and Colleges Senior College and University Commission,www.chapman.edu,www.chapman.edu/finaid/orangeUG/,,0,33.7937,-117.8515,13,0.4471
111966,Charles R Drew University of Medicine and Science,Los Angeles,CA,90059,Western Association of Schools and Colleges Senior College and University Commission,www.cdrewu.edu,www.cdrewu.edu/Calculators,,0,33.9257,-118.2428,,0.8889
112075,Concordia University-Irvine,Irvine,CA,92612-3203,Western Association of Schools and Colleges Senior College and University Commission,www.cui.edu,www.cui.edu/studentlife/financial-aid/undergraduate/index.aspx?id=21911,,0,33.6535,-117.8106,11,0.9119
112084,San Diego Christian College,El Cajon,CA,92019-1157,Western Association of Schools and Colleges Senior College and University Commission,www.sdcc.edu,www.sdcc.edu/NetPriceCalc/npcalc.htm,,0,32.8,-116.9031,8,0.492
112251,Claremont Graduate University,Claremont,CA,91711-6160,Western Association of Schools and Colleges Senior College and University Commission,www.cgu.edu,www.cgu.edu/custom/finaid/pages/5263.asp,,0,34.1038,-117.7124,18,
112260,Claremont McKenna College,Claremont,CA,91711-6400,Western Association of Schools and Colleges Senior College and University Commission,www.claremontmckenna.edu/,npc.collegeboard.org/student/app/claremontmckenna,,0,34.1023,-117.7066,11,0.1173
112394,Cogswell College,Sunnyvale,CA,94089,Western Association of Schools and Colleges Senior College and University Commission,www.cogswell.edu,www.cogswell.edu/financial-aid/npcalc.htm,,0,37.407,-122.0242,7,0.7784
112525,Western University of Health Sciences,Pomona,CA,91766-1854,Western Association of Schools and Colleges Senior College and University Commission,www.westernu.edu,www.westernu.edu/financial-budgets,,0,34.0581,-117.7477,,
113698,Dominican University of California,San Rafael,CA,94901-2298,Western Association of Schools and Colleges Senior College and University Commission,www.dominican.edu,www.dominican.edu/admissions/aid/net-price-calculator-npc,,0,37.98,-122.5147,10,0.7752
114114,Emperor's College of Traditional Oriental Medicine,Santa Monica,CA,90403,Accreditation Commission for Acupuncture and Oriental Medicine,www.emperors.edu,,,0,34.0303,-118.4847,,
114549,Fielding Graduate University,Santa Barbara,CA,93105-3538,Western Association of Schools and Colleges Senior College and University Commission,www.fielding.edu,www.fielding.edu/financialAid,,0,34.4344,-119.7139,18,
114585,Five Branches University,Santa Cruz,CA,95062,Accreditation Commission for Acupuncture and Oriental Medicine,www.fivebranches.edu,www.fivebranches.edu,,0,36.9641,-121.9985,,
114813,Fresno Pacific University,Fresno,CA,93702-4709,Western Association of Schools and Colleges Senior College and University Commission,www.fresno.edu,experiencefpu.com/financial-aid/traditional-undergraduate-net-price-calculator,,0,36.7253,-119.732,10,0.7844
115083,Golden Gate University-San Francisco,San Francisco,CA,94105-2968,Western Association of Schools and Colleges Senior College and University Commission,www.ggu.edu,www.ggu.edu/undergraduate/enrollment/financial-aid/net-price-calculator,,0,37.7892,-122.3988,9,
115409,Harvey Mudd College,Claremont,CA,91711,Western Association of Schools and Colleges Senior College and University Commission,www.hmc.edu,npc.collegeboard.org/student/app/hmc,,0,34.1061,-117.7106,8,0.1817
115728,Holy Names University,Oakland,CA,94619-1699,Western Association of Schools and Colleges Senior College and University Commission,www.hnu.edu,www.hnu.edu/calc/npcalc.htm,,0,37.8027,-122.1872,7,0.5668
115746,Pacifica Graduate Institute,Carpinteria,CA,93013,Western Association of Schools and Colleges Senior College and University Commission,www.pacifica.edu,www.pacifica.edu,,0,34.4205,-119.5803,18,
115755,Humboldt State University,Arcata,CA,95521-8299,Western Association of Schools and Colleges Senior College and University Commission,www.humboldt.edu,www.csumentor.edu/finaid/pais/,,0,40.8741,-124.0814,12,0.8018
115773,Humphreys College-Stockton and Modesto Campuses,Stockton,CA,95207-3896,Western Association of Schools and Colleges Senior College and University Commission,www.humphreys.edu,www.humphreys.edu/index.php?option=com_content&view=article&id=20&Itemid=52,,0,38.0111,-121.3164,7,
116712,John F Kennedy University,Pleasant Hill,CA,94523-4817,Western Association of Schools and Colleges Senior College and University Commission,www.jfku.edu,www.jfku.edu,,0,37.8818,-122.184,6,
116846,American Jewish University,Los Angeles,CA,90077-1519,Western Association of Schools and Colleges Senior College and University Commission,www.aju.edu,www.aju.edu,,0,34.1281,-118.4718,8,0.59
117140,University of La Verne,La Verne,CA,91750-4401,Western Association of Schools and Colleges Senior College and University Commission,www.laverne.edu/,laverne.studentaidcalculator.com/survey.aspx,,0,34.1009,-117.7726,13,0.3895
117168,Laguna College of Art and Design,Laguna Beach,CA,92651,Western Association of Schools and Colleges Senior College and University Commission,www.lcad.edu,www.lcad.edu/netprice,,0,33.5614,-117.7726,,0.4327
117627,La Sierra University,Riverside,CA,92515-8247,Western Association of Schools and Colleges Senior College and University Commission,www.lasierra.edu,www.lasierra.edu/fileadmin/documents/finaid/netprice/npcalc.htm,,0,33.9088,-117.4971,10,0.4677
117636,Loma Linda University,Loma Linda,CA,92350,Western Association of Schools and Colleges Senior College and University Commission,www.llu.edu/index.html,,,0,34.0515,-117.2611,,
117751,The Master's College and Seminary,Santa Clarita,CA,91321-1200,Western Association of Schools and Colleges Senior College and University Commission,www.masters.edu,npc.collegeboard.org/student/app/masters,,0,34.3821,-118.5174,11,0.6137
117946,Loyola Marymount University,Los Angeles,CA,90045-2659,Western Association of Schools and Colleges Senior College and University Commission,www.lmu.edu,financialaid.lmu.edu/prospective/netpricecalculator/,,0,33.9706,-118.4157,14,0.5412
118541,Marymount California University,Rancho Palos Verdes,CA,90275-6299,Western Association of Schools and Colleges Senior College and University Commission,www.MarymountCalifornia.edu,www.MarymountCalifornia.edu/financial-aid,,0,33.7346,-118.3334,2,
118693,Menlo College,Atherton,CA,94027-4301,Western Association of Schools and Colleges Senior College and University Commission,www.menlo.edu,tcc.noellevitz.com/(S(m0yg55vomw1vh010jkmaqqh0))/Menlo%20College/Freshman%20Students,,0,37.4529,-122.1814,8,0.3705
118888,Mills College,Oakland,CA,94613,Western Association of Schools and Colleges Senior College and University Commission,www.mills.edu,npc.collegeboard.org/student/app/mills,,0,37.7826,-122.1879,11,0.6798
119173,Mount St Mary's College,Los Angeles,CA,90049-1599,Western Association of Schools and Colleges Senior College and University Commission,www.msmc.la.edu,www.msmc.la.edu/calculator,,0,34.0821,-118.4805,10,0.7409
119544,The National Hispanic University,San Jose,CA,95127-3823,Western Association of Schools and Colleges Senior College and University Commission,www.nhu.edu,www.nhu.edu/financial_aid/index.htm,,0,37.3591,-121.8159,6,
119605,National University,La Jolla,CA,92037-1011,Western Association of Schools and Colleges Senior College and University Commission,www.nu.edu,www.nu.edu/Admissions/Financial-Aid-and-Scholarships.html,,0,32.9095,-117.2442,15,
120184,Notre Dame de Namur University,Belmont,CA,94002-1908,Western Association of Schools and Colleges Senior College and University Commission,www.ndnu.edu,www.ndnu.edu/admissions/financial-aid/day-undergraduate/calculator-freshmen.aspx,,0,37.5175,-122.2846,10,0.872
120254,Occidental College,Los Angeles,CA,90041-3392,Western Association of Schools and Colleges Senior College and University Commission,www.oxy.edu,www.oxy.edu/admission-aid/financial-aid/net-price-calculator,,0,34.1262,-118.2108,11,0.4239
120403,Otis College of Art and Design,Los Angeles,CA,90045-3505,Western Association of Schools and Colleges Senior College and University Commission,www.otis.edu,www.otis.edu/life_otis/student_life/financial_aid/net_price_calculator.html,,0,33.9566,-118.4166,,0.4628
120537,Hope International University,Fullerton,CA,92831-3199,Western Association of Schools and Colleges Senior College and University Commission,www.hiu.edu,www.hiu.edu/undergrad/tuition/,,0,33.8762,-117.8857,7,0.4681
120698,Palo Alto University,Palo Alto,CA,94304-1337,Western Association of Schools and Colleges Senior College and University Commission,www.paloaltou.edu,,,0,37.3833,-122.186,,
120768,Pacific Oaks College,Pasadena,CA,91103,Western Association of Schools and Colleges Senior College and University Commission,www.pacificoaks.edu,www.pacificoaks.edu/Admissions/Costs_Financial_Aid/Tuition_and_Fees,,0,34.1515,-118.1609,,
120865,Pacific Union College,Angwin,CA,94508-9707,Western Association of Schools and Colleges Senior College and University Commission,www.puc.edu,www.puc.edu/campus-services/student-finance/net-price-calculator,,0,38.5741,-122.4496,11,0.5055
120883,University of the Pacific,Stockton,CA,95211-0197,Western Association of Schools and Colleges Senior College and University Commission,www.pacific.edu,npc.collegeboard.org/student/app/pacific,,0,37.9806,-121.3073,14,0.7265
121150,Pepperdine University,Malibu,CA,90263,Western Association of Schools and Colleges Senior College and University Commission,www.pepperdine.edu/,seaver.pepperdine.edu/financialassistance/,,0,34.0419,-118.7077,14,0.3734
121257,Pitzer College,Claremont,CA,91711-6101,Western Association of Schools and Colleges Senior College and University Commission,www.pitzer.edu,npc.collegeboard.org/student/app/pitzer,,0,34.1034,-117.7059,11,0.1451
121309,Point Loma Nazarene University,San Diego,CA,92106-2899,Western Association of Schools and Colleges Senior College and University Commission,www.pointloma.edu,www.pointloma.edu/NPC,,0,32.7133,-117.2512,14,0.6654
121345,Pomona College,Claremont,CA,91711-6319,Western Association of Schools and Colleges Senior College and University Commission,www.pomona.edu,npc.collegeboard.org/student/app/pomona,,0,34.0983,-117.7119,11,0.1392
121628,Pardee RAND Graduate School,Santa Monica,CA,90407-2138,Western Association of Schools and Colleges Senior College and University Commission,www.prgs.edu,www.prgs.edu,,0,34.01,-118.4905,,
121691,University of Redlands,Redlands,CA,92373-0999,Western Association of Schools and Colleges Senior College and University Commission,www.redlands.edu,www.redlands.edu/offices-directories/financial-aid/11014.aspx,,0,34.0636,-117.1638,14,0.672
122117,Dongguk University-Los Angeles,Los Angeles,CA,90020-1704,Accreditation Commission for Acupuncture and Oriental Medicine,dula.edu,dula.edu/netpricecalculator,,0,34.0662,-118.2899,,
122296,Samuel Merritt University,Oakland,CA,94609,Western Association of Schools and Colleges Senior College and University Commission,www.samuelmerritt.edu,,,0,37.82,-122.2669,,
122409,San Diego State University,San Diego,CA,92182,Western Association of Schools and Colleges Senior College and University Commission,www.sdsu.edu,www.csumentor.edu/finaid/pais/,,0,32.7753,-117.0712,15,0.3121
122436,University of San Diego,San Diego,CA,92110-2492,Western Association of Schools and Colleges Senior College and University Commission,www.sandiego.edu,www.sandiego.edu/admissions/undergraduate/tuition_aid/affording_usd.php,,0,32.7714,-117.1887,13,0.4885
122506,San Francisco Conservatory of Music,San Francisco,CA,94102-6011,Western Association of Schools and Colleges Senior College and University Commission,www.sfcm.edu,www.sfcm.edu,,0,37.7753,-122.4201,,0.3986
122597,San Francisco State University,San Francisco,CA,94132,Western Association of Schools and Colleges Senior College and University Commission,www.sfsu.edu,www.csumentor.edu/finaid/pais/,,0,37.7213,-122.4779,15,0.6379
122612,University of San Francisco,San Francisco,CA,94117-1080,Western Association of Schools and Colleges Senior College and University Commission,www.usfca.edu/,www.usfca.edu/netpricecalculator/,,0,37.7756,-122.451,13,0.6129
122649,San Joaquin College of Law,Clovis,CA,93612-1312,Western Association of Schools and Colleges Senior College and University Commission,www.sjcl.edu,,,0,36.824,-119.6978,,
122755,San Jose State University,San Jose,CA,95192-0001,Western Association of Schools and Colleges Senior College and University Commission,www.sjsu.edu,www.csumentor.edu/finaid/pais/,,0,37.3352,-121.8812,15,0.6347
122931,Santa Clara University,Santa Clara,CA,95053,Western Association of Schools and Colleges Senior College and University Commission,www.scu.edu,www.scu.edu/financialaid/Net-Price-Calculator.cfm,,0,37.3527,-121.9382,13,0.5122
123095,Saybrook University,San Francisco,CA,94111-1920,Western Association of Schools and Colleges Senior College and University Commission,www.saybrook.edu,www.saybrook.edu/affording/howtoapply/determineneed,,0,37.7984,-122.4001,,
123165,Scripps College,Claremont,CA,91711-3905,Western Association of Schools and Colleges Senior College and University Commission,www.scrippscollege.edu,admission.scrippscollege.edu/net-price-calculator,,0,34.1037,-117.7113,8,0.357
123457,Simpson University,Redding,CA,96003-8606,Western Association of Schools and Colleges Senior College and University Commission,www.simpsonu.edu,tcc.noellevitz.com/(S(i54tbognlq54ib4uxvlamtda))/Simpson-University-CA/Freshman-Students,,0,40.6133,-122.333,10,0.555
123554,Saint Mary's College of California,Moraga,CA,94575,Western Association of Schools and Colleges Senior College and University Commission,www.stmarys-ca.edu,www.stmarys-ca.edu/admissions-aid/net-price-calculator,,0,37.84,-122.1068,14,0.6947
123572,Sonoma State University,Rohnert Park,CA,94928-3609,Western Association of Schools and Colleges Senior College and University Commission,www.sonoma.edu,www.csumentor.edu/finaid/pais/,,0,38.341,-122.6733,13,0.8186
123633,South Baylo University,Anaheim,CA,92801-1701,Accreditation Commission for Acupuncture and Oriental Medicine,WWW.SOUTHBAYLO.EDU,www.southbaylo.edu,,0,33.8479,-117.9587,,
123651,Vanguard University of Southern California,Costa Mesa,CA,92626,Western Association of Schools and Colleges Senior College and University Commission,www.vanguard.edu,undergraduate.vanguard.edu/net-price-calculator,,0,33.6627,-117.9009,11,0.6977
123943,Marshall B Ketchum University,Fullerton,CA,92831-1699,Western Association of Schools and Colleges Senior College and University Commission,www.ketchum.edu,www.ketchum.edu,,0,33.8898,-117.8862,,
123952,Southern California Institute of Architecture,Los Angeles,CA,90013-1822,Western Association of Schools and Colleges Senior College and University Commission,www.sciarc.edu,www.sciarc.edu,,0,34.0437,-118.2327,,0.8667
123961,University of Southern California,Los Angeles,CA,90089,Western Association of Schools and Colleges Senior College and University Commission,www.usc.edu/,www.usc.edu/admission/fa/applying_receiving/undergraduates1/netpricecalculator.html,,0,34.0211,-118.2839,16,0.1984
125718,Westminster Theological Seminary in California,Escondido,CA,92027,Western Association of Schools and Colleges Senior College and University Commission,www.wscal.edu,www.wscal.edu,,0,33.1214,-117.0464,,
125727,Westmont College,Santa Barbara,CA,93108-1089,Western Association of Schools and Colleges Senior College and University Commission,www.westmont.edu,www.westmont.edu/admissions/npc.html,,0,34.4493,-119.6619,11,0.7016
125763,Whittier College,Whittier,CA,90601,Western Association of Schools and Colleges Senior College and University Commission,WWW.whittier.edu,web.whittier.edu/AdmissionAndAid/Tuition/NPC.aspx,,0,33.9776,-118.0284,11,0.6325
125897,Woodbury University,Burbank,CA,91510-7846,Western Association of Schools and Colleges Senior College and University Commission,woodbury.edu/,npc.collegeboard.org/student/app/woodbury,,0,34.2092,-118.3407,9,0.5575
126012,The Wright Institute,Berkeley,CA,94704-1796,Western Association of Schools and Colleges Senior College and University Commission,www.wi.edu,,,0,37.8682,-122.2532,,
126030,Western State College of Law at Argosy University,Fullerton,CA,92831-3014,Western Association of Schools and Colleges Senior College and University Commission,www.wsulaw.edu,tcc.noellevitz.com/edmc/Argosy%20University?iframe=true&width600&height=1000,,0,33.8807,-117.8903,,
130581,Tri-State College of Acupuncture,New York,NY,10011,Accreditation Commission for Acupuncture and Oriental Medicine,www.TSCA.edu,www.tsca.edu,,0,40.7399,-74.0021,,
140331,Chattahoochee Technical College,Marietta,GA,30060,Southern Association of Colleges and Schools Commission on Colleges | Council on Occupational Education,www.chattahoocheetech.edu,www.chattahoocheetech.edu/npcalc/,,0,33.9291,-84.5525,4,
141486,Chaminade University of Honolulu,Honolulu,HI,96816-1578,Western Association of Schools and Colleges Senior College and University Commission,www.chaminade.edu,www.chaminade.edu/ug/tuition-calculator.php,,0,21.2903,-157.8076,10,0.8359
141565,University of Hawaii at Hilo,Hilo,HI,96720-4091,Western Association of Schools and Colleges Senior College and University Commission,hilo.hawaii.edu,hilo.hawaii.edu/financialaid/netpricecalculator.php,,0,19.7019,-155.0813,13,0.752
141574,University of Hawaii at Manoa,Honolulu,HI,96822-2217,Western Association of Schools and Colleges Senior College and University Commission,manoa.hawaii.edu,www.hawaii.edu/fas/basics/calculator.php,,0,21.2926,-157.8166,15,0.8009
141644,Hawaii Pacific University,Honolulu,HI,96813,Western Association of Schools and Colleges Senior College and University Commission,www.hpu.edu,secure.hpu.edu/netprice-calculator/index.html,,0,21.3101,-157.8593,12,0.6411
141839,University of Hawaii Maui College,Kahului,HI,96732-1643,Western Association of Schools and Colleges Senior College and University Commission,maui.hawaii.edu,npc.collegeboard.org/student/app/uhcc,,0,20.8906,-156.4799,9,
141936,World Medicine Institute,Honolulu,HI,96821,Accreditation Commission for Acupuncture and Oriental Medicine,www.wmi.edu,www.wmi.edu,,0,21.2964,-157.7547,,
141981,University of Hawaii-West Oahu,Kapolei,HI,96707-4507,Western Association of Schools and Colleges Senior College and University Commission,westoahu.hawaii.edu,westoahu.hawaii.edu/uhwo/finaid/npcalc/,,0,21.3941,-157.9821,6,0.7643
143978,The Chicago School of Professional Psychology at Chicago,Chicago,IL,60654,Western Association of Schools and Colleges Senior College and University Commission,www.thechicagoschool.edu,www.thechicagoschool.edu/Chicago/Admissions/Costs_and_Financial_Aid/Budgeting_to_attend_The_Chicago_School,,0,41.8879,-87.6339,,
154022,Ashford University,Clinton,IA,52733-2967,Western Association of Schools and Colleges Senior College and University Commission,www.ashford.edu,ashford.studentaidcalculator.com/survey.aspx,,0,41.8519,-90.1991,15,
156921,Jefferson Community and Technical College,Louisville,KY,40202-2005,Southern Association of Colleges and Schools Commission on Colleges | Council on Occupational Education,www.jefferson.kctcs.edu,kctcs.edu/en/Students/Costs_and_Financial_Aid.aspx,,0,38.2475,-85.7535,4,
167181,New England School of Acupuncture,Newton,MA,2458,Accreditation Commission for Acupuncture and Oriental Medicine,www.nesa.edu,,,0,42.3637,-71.1949,,
188465,Globe Institute of Technology,New York,NY,10018,New York State Board of Regents and the Commissioner of Education,www.globe.edu/index.asp,www.globe.edu/net_price_calculator.asp,,0,40.7149,-74.006,,
188669,The Ailey School,New York,NY,10019-4402,National Association of Schools of Dance Commission on Accreditation,www.alvinailey.org,www.theaileyschool.edu/ailey-school/general-information,,0,40.7669,-73.9869,,0.1784
188696,Joffrey Ballet School,New York,NY,10011,National Association of Schools of Dance Commission on Accreditation,www.joffreyballetschool.com,www.joffreyballetschool.com,,1,40.7345,-73.9986,,1
189282,Phillips Beth Israel School of Nursing,New York,NY,10001-6354,New York State Board of Regents and the Commissioner of Education,www.futurenursebi.org,www.futurenursebi.org,,0,40.7449,-73.9911,1,0.3043
189422,Bramson ORT College,Forest Hills,NY,11375-4239,New York State Board of Regents and the Commissioner of Education,bramsonort.edu,www.bramsonort.edu/finaid/netpricecalculator/npcalc.htm,,1,40.7214,-73.8478,2,
191764,Institute of Design and Construction,Brooklyn,NY,11201-5380,New York State Board of Regents and the Commissioner of Education,www.idc.edu,www.idc.edu/NetPriceCalculator/npcalc.htm,,1,40.6922,-73.9831,1,
192961,Memorial School of Nursing,Albany,NY,12204,New York State Board of Regents and the Commissioner of Education,www.nehealth.com,www.nehealth.com/SON/Financial_Aid_Opportunities/,,0,42.6736,-73.7501,1,0.5
195289,Samaritan Hospital School of Nursing,Troy,NY,12065,New York State Board of Regents and the Commissioner of Education,www.nehealth.com,www.nehealth.com/SON/Net_Price_Calculator/calculator.asp,,0,42.7331,-73.672,1,0.8
195845,New York Career Institute,New York,NY,10007,New York State Board of Regents and the Commissioner of Education,www.nyci.edu,www.nyci.edu,,0,40.7132,-74.0083,2,
197081,Utica School of Commerce,Utica,NY,13501,New York State Board of Regents and the Commissioner of Education,www.uscny.edu,www.uscny.edu/netPrice/npcalc.htm,,0,43.1018,-75.2286,1,
197522,Wood Tobe-Coburn School,New York,NY,10016-0190,New York State Board of Regents and the Commissioner of Education,woodtobecoburn.edu,woodtobecoburn.edu,,0,40.7518,-73.9813,2,
206905,Pontotoc Technology Center,Ada,OK,74820,Oklahoma Board of Career and Technology Education,www.pontotoctech.edu,www.pontotoctech.edu,,0,34.7519,-96.6818,,
207607,Tulsa Technology Center-Peoria Campus,Tulsa,OK,74106-1619,Oklahoma Board of Career and Technology Education,www.tulsatech.edu,tulsatech.edu/_layouts/ttc/NPC.html,,0,36.2106,-95.9775,,
208026,Indian Capital Technology Center-Tahlequah,Tahlequah,OK,74464,Oklahoma Board of Career and Technology Education,www.ictctech.com,www.ictctech.com,,0,35.9202,-94.9915,,
208053,High Plains Technology Center,Woodward,OK,73801,Oklahoma Board of Career and Technology Education,www.hptc.net,www.hptc.net,,0,36.4062,-99.4273,,
230047,Brigham Young University-Hawaii,Laie,HI,96762-1294,Western Association of Schools and Colleges Senior College and University Commission,www.byuh.edu/,financialaid.byuh.edu/net_price_calculator,,0,21.6412,-157.9254,11,0.3604
240754,University of Guam,Mangilao,GU,96923,Western Association of Schools and Colleges Senior College and University Commission,www.uog.edu,www.uog.edu/admin/assetmanager/images/financial%20aid/calculator/npcalc.htm,,0,13.4327,144.8028,9,
242556,Instituto Tecnologico de Puerto Rico-Recinto de Guayama,Guayama,PR,00785-0000,Puerto Rico State Agency for the Approval of Public Postsecondary Vocational Technical Institutions and Programs,itec.pr/,www.itecguayama.com,,0,17.9761,-66.1066,2,
242565,Instituto Tecnologico de Puerto Rico-Recinto de Ponce,Ponce,PR,00717-0306,Puerto Rico State Agency for the Approval of Public Postsecondary Vocational Technical Institutions and Programs,itec.pr,itecponce.com,,0,17.9982,-66.6292,2,0.9241
242583,Instituto Tecnologico de Puerto Rico-Recinto de San Juan,San Juan,PR,924,Puerto Rico State Agency for the Approval of Public Postsecondary Vocational Technical Institutions and Programs,,,,0,18.4122,-66.017,2,0.806
243744,Stanford University,Stanford,CA,94305,Western Association of Schools and Colleges Senior College and University Commission,www.stanford.edu/,www.stanford.edu/dept/finaid/undergrad/how/calculator/,,0,37.4317,-122.1822,17,0.0569
245999,Francis Tuttle Technology Center,Oklahoma City,OK,73142-2789,Oklahoma Board of Career and Technology Education,www.francistuttle.edu,www.francistuttle.edu,,0,35.6005,-97.6407,,
246017,Central Technology Center,Drumright,OK,74030,Oklahoma Board of Career and Technology Education,www.centraltech.edu,home.ctechbis.com/netpriceCalc/npcalc.htm,,0,35.9943,-96.5853,,
248606,Moore Norman Technology Center,Norman,OK,73069-8399,Oklahoma Board of Career and Technology Education,mntechnology.com/,mntechnology.com/classes,,0,35.2744,-97.4573,,0.6504
250993,Red River Technology Center,Duncan,OK,73533,Oklahoma Board of Career and Technology Education,rrtc.edu,www.rrtc.edu/wp-content/uploads/2012/04/npcalc.htm,,0,34.4911,-97.9905,,
261375,Tulsa Technology Center-Lemley Campus,Tulsa,OK,74145-1390,Oklahoma Board of Career and Technology Education,www.tulsatech.edu,tulsatech.edu/_layouts/ttc/NPC.html,,0,36.1126,-95.8881,,
261384,Tulsa Technology Center-Riverside Campus,Tulsa,OK,74132-4008,Oklahoma Board of Career and Technology Education,www.tulsatech.edu,tulsatech.edu/_layouts/ttc/NPC.html,,0,36.0336,-95.9826,,
261393,Tulsa Technology Center-Broken Arrow Campus,Broken Arrow,OK,74012,Oklahoma Board of Career and Technology Education,tulsatech.edu/Pages/Default.aspx,tulsatech.edu/Admissions/FinancialAid/Pages/Default.aspx,,0,36.0051,-95.8364,,
262086,Brandman University,Irvine,CA,92618,Western Association of Schools and Colleges Senior College and University Commission,www.brandman.edu/,www.brandman.edu/admissions/tuition,,0,33.6557,-117.7686,12,1
363165,Metro Technology Centers,Oklahoma City,OK,73111-5240,Oklahoma Board of Career and Technology Education,www.metrotech.edu,www.metrotech.edu/student_services/NetPriceCalculator/npcalc.htm,,0,35.5125,-97.4782,,
364548,Great Plains Technology Center,Lawton,OK,73505-8399,Oklahoma Board of Career and Technology Education,www.greatplains.edu,www.greatplains.edu/adults/lawton-career-majors/,,0,34.594,-98.447,,
364627,Pioneer Technology Center,Ponca City,OK,74601,Oklahoma Board of Career and Technology Education,pioneertech.edu,pioneertech.edu,,0,36.7277,-97.0935,,
364946,Caddo Kiowa Technology Center,Fort Cobb,OK,73038-0190,Oklahoma Board of Career and Technology Education,www.caddokiowa.com,www.caddokiowa.com/net-price-calculator,,0,35.0951,-98.4424,,
365198,Southern Oklahoma Technology Center,Ardmore,OK,73401,Oklahoma Board of Career and Technology Education,www.sotc.edu,www.sotc.edu,,0,34.1854,-97.0832,,
365213,Autry Technology Center,Enid,OK,73703-2506,Oklahoma Board of Career and Technology Education,www.autrytech.edu,www.autrytech.edu/npcalc.htm,,0,36.4191,-97.8972,,0.9224
365374,Canadian Valley Technology Center,El Reno,OK,73036,Oklahoma Board of Career and Technology Education,www.cvtech.edu,www.cvtech.edu/student-services/financial-aid,,0,35.5092,-97.882,,
365480,Meridian Technology Center,Stillwater,OK,74074-1899,Oklahoma Board of Career and Technology Education,www.meridiantech.edu,www.meridiantech.edu/individual/financial-aid#netpricecalc,,0,36.107,-97.1084,,
366605,Southwest Acupuncture College-Santa Fe,Santa Fe,NM,87505,Accreditation Commission for Acupuncture and Oriental Medicine,www.acupuncturecollege.edu,,,0,35.6618,-105.95,,
366623,Northwest Technology Center-Alva,Alva,OK,73717,Oklahoma Board of Career and Technology Education,www.nwtech.edu,www.nwtech.edu,,0,36.7867,-98.6757,,
366711,California State University-San Marcos,San Marcos,CA,92096-0001,Western Association of Schools and Colleges Senior College and University Commission,www.csusm.edu,www.csumentor.edu/finaid/pais/,,0,33.1291,-117.158,12,0.6251
368364,Southwest Technology Center,Altus,OK,73521,Oklahoma Board of Career and Technology Education,www.swtech.edu,www.swtech.edu/admissions/generalinfo/NetPriceCalculator.htm,,0,34.6682,-99.3412,,
375656,Chisholm Trail Technology Center,Omega,OK,73764-6335,Oklahoma Board of Career and Technology Education,www.cttc.edu,www.cttc.edu,,0,35.8422,-98.2018,,
375683,Gordon Cooper Technology Center,Shawnee,OK,74804,Oklahoma Board of Career and Technology Education,www.gctech.org,www.gctech.org/sites/gordoncooper/uploads/npcalc.htm,,0,35.3803,-96.908,,
375692,Kiamichi Technology Center-Atoka,Atoka,OK,74525-0240,Oklahoma Board of Career and Technology Education,www.ktc.edu,www.ktc.edu,,0,34.3954,-96.153,,
375708,Kiamichi Technology Center-Durant,Durant,OK,74701-1904,Oklahoma Board of Career and Technology Education,https://www.ktc.edu,www.ktc.edu,,0,33.946,-96.4061,,
375717,Kiamichi Technology Center-Hugo,Hugo,OK,74743,Oklahoma Board of Career and Technology Education,www.ktc.edu,www.ktc.edu/financialaid/tuitioncalculator.aspx,,0,34.0083,-95.4945,,
375726,Kiamichi Technology Center-McAlester,McAlester,OK,74501,Oklahoma Board of Career and Technology Education,www.ktc.edu/Template0.asp?pg=128,www.ktc.edu/netprice/npcalc.htm,,0,34.9242,-95.746,,
375735,Kiamichi Technology Center-Idabel,Idabel,OK,74745-2415,Oklahoma Board of Career and Technology Education,www.ktc.edu,www.ktc.edu,,0,33.9219,-94.775,,
375744,Kiamichi Technology Center-Poteau,Poteau,OK,74953,Oklahoma Board of Career and Technology Education,www.ktc.edu,www.ktc.edu,,0,35.0382,-94.634,,
375753,Kiamichi Technology Center-Spiro,Spiro,OK,74959,Oklahoma Board of Career and Technology Education,www.ktc.edu/locations/spiro.aspx,www.ktc.edu/netprice/npcalc.htm,,0,35.2404,-94.6288,,
375762,Kiamichi Technology Center-Talihina,Talihina,OK,74571,Oklahoma Board of Career and Technology Education,www.ktc.edu,www.ktc.edu/netprice/npcalc.htm,,0,34.7653,-95.092,,
381352,Colorado School of Traditional Chinese Medicine,Denver,CO,80206,Accreditation Commission for Acupuncture and Oriental Medicine,www.cstcm.edu,cstcm.edu/files/u1/npc/npcalc.htm,,0,39.7391,-104.9595,,
383020,Midwest College of Oriental Medicine-Racine,Racine,WI,53403-9747,Accreditation Commission for Acupuncture and Oriental Medicine,www.Acupuncture.edu,,,0,42.6781,-87.8567,,
383507,Dance Theatre of Harlem Inc,New York,NY,10031-1896,National Association of Schools of Dance Commission on Accreditation,www.dancetheatreofharlem.org,www.dancetheatreofharlem.org,,1,40.8292,-73.9438,,0.4783
399911,Soka University of America,Aliso Viejo,CA,92656-4105,Western Association of Schools and Colleges Senior College and University Commission,www.soka.edu,www.soka.edu/netpricecalculator/,,0,33.5494,-117.7349,8,0.4336
401250,Yo San University of Traditional Chinese Medicine,Los Angeles,CA,90066,Accreditation Commission for Acupuncture and Oriental Medicine,www.yosan.edu,www.yosan.edu,,0,33.9929,-118.4429,,
405748,Kiamichi Technology Center-Stigler,Stigler,OK,74462-9601,Oklahoma Board of Career and Technology Education,www.ktc.edu,www.ktc.edu,,0,35.2484,-95.1082,,
407601,Northwest Technology Center-Fairview,Fairview,OK,73737,Oklahoma Board of Career and Technology Education,www.nwtech.edu,www.nwtech.edu,,0,36.262,-98.4967,,
409698,California State University-Monterey Bay,Seaside,CA,93955-8001,Western Association of Schools and Colleges Senior College and University Commission,www.csumb.edu,www.csumentor.edu/finaid/pais/,,0,36.6537,-121.7992,14,0.444
413644,Southwest Acupuncture College-Albuquerque,Albuquerque,NM,87109,Accreditation Commission for Acupuncture and Oriental Medicine,www.acupuncturecollege.edu,,,0,35.1458,-106.5581,,
418126,New York College of Health Professions,Syosset,NY,11791-4413,New York State Board of Regents and the Commissioner of Education,www.nycollege.edu,www.nycollege.edu,,0,40.8076,-73.5178,,0.8095
418287,Tri County Technology Center,Bartlesville,OK,74006-6029,Oklahoma Board of Career and Technology Education,www.tctc.org,www.tctc.org,,0,36.7272,-95.9093,,
418296,Indian Capital Technology Center-Muskogee,Muskogee,OK,74403-1889,Oklahoma Board of Career and Technology Education,www.ictctech.com,www.ictctech.com/financialaid.htm,,0,35.7749,-95.3119,,
418302,Western Technology Center,Burns Flat,OK,73624-1469,Oklahoma Board of Career and Technology Education,www.westtech.edu,www.westtech.edu,,0,35.3528,-99.1857,,
418320,Mid-America Technology Center,Wayne,OK,73095-0210,Oklahoma Board of Career and Technology Education,www.matech.edu,www.matech.edu,,0,34.9125,-97.3642,,
418339,Northeast Technology Center-Pryor,Pryor,OK,74361,Oklahoma Board of Career and Technology Education,www.netech.edu,www.netech.edu/,,0,36.3091,-95.4251,,
418348,Eastern Oklahoma County Technology Center,Choctaw,OK,73020-9017,Oklahoma Board of Career and Technology Education,www.eoctech.edu,www.eoctech.edu/NetPriceCalculator/npcalc.htm,,0,35.5169,-97.267,,
418357,Wes Watkins Technology Center,Wetumka,OK,74883-6155,Oklahoma Board of Career and Technology Education,www.wwtech.org,www.wwtech.org,,0,35.2333,-96.2663,,
418676,Carlos F Daniels Area Vocational School,Carolina,PR,982,Puerto Rico State Agency for the Approval of Public Postsecondary Vocational Technical Institutions and Programs,www.de.gobierno.pr,www.de.gobierno.pr,,0,18.3851,-65.9612,,
420459,Northeast Technology Center-Afton,Afton,OK,74331,Oklahoma Board of Career and Technology Education,www.netech.edu,www.netech.edu,,0,36.7304,-94.9291,,
421540,Indian Capital Technology Center-Sallisaw,Sallisaw,OK,74955,Oklahoma Board of Career and Technology Education,www.ictctech.com,www.ictctech.com,,0,35.4464,-94.7934,,
421559,Indian Capital Technology Center-Stilwell,Stilwell,OK,74960,Oklahoma Board of Career and Technology Education,www.ictctech.com,www.ictctech.com,,0,35.8416,-94.6344,,
428019,Green Country Technology Center,Okmulgee,OK,74447,Oklahoma Board of Career and Technology Education,gctcok.com,gctcok.com,,0,35.6329,-95.9365,,
430591,American College of Traditional Chinese Medicine,San Francisco,CA,94107,Accreditation Commission for Acupuncture and Oriental Medicine,www.actcm.edu,www.actcm.edu/content.php?topmenu=4&root=4&id=319,,0,37.7605,-122.3982,,
431017,Mid-Del Technology Center,Midwest City,OK,73110-4825,Oklahoma Board of Career and Technology Education,www.middeltech.com,www.middeltech.com/downloads/NetPriceCalculator/npcalc.htm,,0,35.4552,-97.4026,,
432074,Northeast Technology Center-Kansas,Kansas,OK,74347,Oklahoma Board of Career and Technology Education,www.netech.edu,www.netech.edu/,,0,36.2098,-94.7784,,
434441,Florida College of Integrative Medicine,Orlando,FL,32809-5721,Accreditation Commission for Acupuncture and Oriental Medicine,www.fcim.edu,,,0,28.4636,-81.4018,,
436261,Southwest Acupuncture College-Boulder,Boulder,CO,80301,Accreditation Commission for Acupuncture and Oriental Medicine,www.acupuncturecollege.edu,,,0,40.0694,-105.1995,,
436438,Argosy University-Orange County,Orange,CA,92868,Western Association of Schools and Colleges Senior College and University Commission,www.argosy.edu/orangecounty,tcc.noellevitz.com/edmc/Argosy%20University?iframe=true&width600&height=1000,,0,33.7791,-117.8975,6,
439020,Midwest College of Oriental Medicine-Chicago,Chicago,IL,60613-1429,Accreditation Commission for Acupuncture and Oriental Medicine,www.Acupuncture.edu,,,0,41.9613,-87.6526,,
439394,East West College of Natural Medicine,Sarasota,FL,34234-0000,Accreditation Commission for Acupuncture and Oriental Medicine,ewcollege.org,,,0,27.3685,-82.5516,,
439446,Atlantic Institute of Oriental Medicine,Fort Lauderdale,FL,33301-3510,Accreditation Commission for Acupuncture and Oriental Medicine,www.atom.edu,www.atom.edu,,0,26.122,-80.1422,,
439783,New York College of Traditional Chinese Medicine,Mineola,NY,11501,Accreditation Commission for Acupuncture and Oriental Medicine,www.nyctcm.edu,www.nyctcm.edu,,0,40.7427,-73.6383,,
439914,Seattle Institute of Oriental Medicine,Seattle,WA,98115-6467,Accreditation Commission for Acupuncture and Oriental Medicine,www.siom.edu,www.siom.edu,,0,47.6779,-122.3237,,
440031,Keck Graduate Institute,Claremont,CA,91711,Western Association of Schools and Colleges Senior College and University Commission,www.kgi.edu,www.kgi.edu/admissions/financial-aid/tuition.html,,0,34.0933,-117.7235,18,
441937,California State University-Channel Islands,Camarillo,CA,93012,Western Association of Schools and Colleges Senior College and University Commission,www.csuci.edu,www.csuci.edu/financialaid/Cost_of_Attendance.htm,,0,34.1629,-119.0436,12,0.6443
443331,West Coast University-Los Angeles,North Hollywood,CA,91606,Western Association of Schools and Colleges Senior College and University Commission,westcoastuniversity.edu/campuses/los-angeles.html,westcoastuniversity.edu/admissions/financial-aid.html,,0,34.0793,-118.2925,,0.5444
444699,Institute of Clinical Acupuncture & Oriental Med,Honolulu,HI,96817,Accreditation Commission for Acupuncture and Oriental Medicine,www.orientalmedicine.edu,www.orientalmedicine.edu/NetPrice/npcalc,,0,21.3139,-157.8609,,
445188,University of California-Merced,Merced,CA,95343-5603,Western Association of Schools and Colleges Senior College and University Commission,www.ucmerced.edu,finaidapps.ucmerced.edu/calculator/,,0,37.3662,-120.4249,,0.7551
446002,American Academy of Acupuncture and Oriental Medicine,Roseville,MN,55113,Accreditation Commission for Acupuncture and Oriental Medicine,www.aaaom.edu,www.aaaom.edu,,0,45.0158,-93.1814,,
446039,Arizona School of Acupuncture and Oriental Medicine,Tucson,AZ,85712,Accreditation Commission for Acupuncture and Oriental Medicine,www.asaom.edu,,,0,32.2613,-110.8934,,
446224,Eastern School of Acupuncture and Traditional Medicine,Montclair,NJ,07042-3551,Accreditation Commission for Acupuncture and Oriental Medicine,www.EasternSchool.com,www.EasternSchool.com,,0,40.813,-74.2161,,
447050,United States University,Chula Vista,CA,91911,Western Association of Schools and Colleges Senior College and University Commission,www.usuniversity.edu,www.usuniversity.edu/netpricecalculator/npcalc.htm,,0,32.6149,-117.092,6,
447698,Phoenix Institute of Herbal Medicine & Acupuncture,Phoenix,AZ,85012,Accreditation Commission for Acupuncture and Oriental Medicine,www.pihma.edu,www.pihma.edu,,0,33.5229,-112.0688,,
447801,University of East-West Medicine,Sunnyvale,CA,94085-3922,Accreditation Commission for Acupuncture and Oriental Medicine,www.uewm.edu,www.uewm.edu,,0,37.3863,-121.996,,
449481,Dragon Rises College of Oriental Medicine,Gainesville,FL,32601,Accreditation Commission for Acupuncture and Oriental Medicine,www.dragonrises.edu,www.dragonrises.edu/students/disclosures/,,0,29.6674,-82.3128,,
449579,Hawaii College of Oriental Medicine,Hilo,HI,96720,Accreditation Commission for Acupuncture and Oriental Medicine,www.hicom.edu,www.hicom.edu,,0,20.0177,-155.6598,,
449870,University of the West,Rosemead,CA,91770,Western Association of Schools and Colleges Senior College and University Commission,www.uwest.edu,www.uwest.edu/site/index.php?option=com_content&view=article&id=376&Itemid=417,,0,34.046,-118.083,7,
450979,Trident University International,Cypress,CA,90630-5041,Western Association of Schools and Colleges Senior College and University Commission,www.trident.edu/,trident.studentaidcalculator.com/survey.aspx,,0,33.8052,-118.0348,12,
451079,Academy for Five Element Acupuncture,Gainesville,FL,32601,Accreditation Commission for Acupuncture and Oriental Medicine,www.acupuncturist.edu,www.acupuncturist.edu,,0,29.6501,-82.322,,
452106,Escuela De Troqueleria Y Herramentaje,Bayamon,PR,959,Puerto Rico State Agency for the Approval of Public Postsecondary Vocational Technical Institutions and Programs,escuelatroqueleria.jimdo.com,escuelatroqueleria.jimdo.com/asistencia-economica/calculadora/,,0,18.3721,-66.1423,,
454838,Institute of Taoist Education and Acupuncture,Louisville,CO,80027,Accreditation Commission for Acupuncture and Oriental Medicine,www.itea.edu,www.itea.edu,,0,39.9873,-105.1385,,
455178,Daoist Traditions College of Chinese Medical Arts,Asheville,NC,28801,Accreditation Commission for Acupuncture and Oriental Medicine,daoisttraditions.edu,www.daoisttraditions.com/GainfulEmploymentInformation.html,,0,35.6068,-82.5685,,
455770,Providence Christian College,Pasadena,CA,91104,Western Association of Schools and Colleges Senior College and University Commission,providencecc.net,providencecc.net/wp-content/themes/PCC/NetPriceCalculator/npcalc.htm,,0,34.1718,-118.1187,8,0.5328
457271,Academy for Jewish Religion-California,Los Angeles,CA,90010,Western Association of Schools and Colleges Senior College and University Commission,www.ajrca.edu,www.ajrca.edu,,0,34.0704,-118.4386,,
459222,Southern California University SOMA,Los Angeles,CA,90017,Accreditation Commission for Acupuncture and Oriental Medicine,www.scusoma.edu,www.scusoma.edu,,1,34.0552,-118.2696,,
461139,Jung Tao School of Classical Chinese Medicine,Sugar Grove,NC,28679-9657,Accreditation Commission for Acupuncture and Oriental Medicine,www.jungtao.edu,www.jungtao.edu/index.php/financial/financial-aid-helpful-links,,0,36.2632,-81.7849,,
462354,John Paul the Great Catholic University,Escondido,CA,92025,Western Association of Schools and Colleges Senior College and University Commission,www.jpcatholic.com/,www.jpcatholic.com/admission/cost/npcalc.htm,,0,32.8996,-117.1077,,0.8815
474863,Azusa Pacific Online University,Glendora,CA,91740,Western Association of Schools and Colleges Senior College and University Commission,www.apu.edu/apou/,learner.apou.net/ICS/Financial_Aid_Resources/FA_Forms.jnz?portlet=Net_Price_Calculator,,0,34.1189,-117.8712,,
475510,Christie's Education,New York,NY,10036-8002,New York State Board of Regents and the Commissioner of Education,www.christies.edu,,,0,,,,
