UNITID,INSTNM,CITY,STABBR,ZIP,AccredAgency,INSTURL,NPCURL,sch_deg,HCM2,LATITUDE,LONGITUDE,CCSIZSET,ADM_RATE
206905,Pontotoc Technology Center,Ada,OK,74820,Oklahoma Board of Career and Technology Education,www.pontotoctech.edu,www.pontotoctech.edu,Null,0,34.7519,-96.6818,0.0,0.0
208026,Indian Capital Technology Center-Tahlequah,Tahlequah,OK,74464,Oklahoma Board of Career and Technology Education,www.ictctech.com,www.ictctech.com,Null,0,35.9202,-94.9915,0.0,0.0
208053,High Plains Technology Center,Woodward,OK,73801,Oklahoma Board of Career and Technology Education,www.hptc.net,www.hptc.net,Null,0,36.4062,-99.4273,0.0,0.0
245999,Francis Tuttle Technology Center,Oklahoma City,OK,73142-2789,Oklahoma Board of Career and Technology Education,www.francistuttle.edu,www.francistuttle.edu,Null,0,35.6005,-97.6407,0.0,0.0
363165,Metro Technology Centers,Oklahoma City,OK,73111-5240,Oklahoma Board of Career and Technology Education,www.metrotech.edu,www.metrotech.edu/student_services/NetPriceCalculator/npcalc.htm,Null,0,35.5125,-97.4782,0.0,0.0
364548,Great Plains Technology Center,Lawton,OK,73505-8399,Oklahoma Board of Career and Technology Education,www.greatplains.edu,www.greatplains.edu/adults/lawton-career-majors/,Null,0,34.594,-98.447,0.0,0.0
364946,Caddo Kiowa Technology Center,Fort Cobb,OK,73038-0190,Oklahoma Board of Career and Technology Education,www.caddokiowa.com,www.caddokiowa.com/net-price-calculator,Null,0,35.0951,-98.4424,0.0,0.0
365198,Southern Oklahoma Technology Center,Ardmore,OK,73401,Oklahoma Board of Career and Technology Education,www.sotc.edu,www.sotc.edu,Null,0,34.1854,-97.0832,0.0,0.0
365213,Autry Technology Center,Enid,OK,73703-2506,Oklahoma Board of Career and Technology Education,www.autrytech.edu,www.autrytech.edu/npcalc.htm,Null,0,36.4191,-97.8972,0.0,0.9224
365374,Canadian Valley Technology Center,El Reno,OK,73036,Oklahoma Board of Career and Technology Education,www.cvtech.edu,www.cvtech.edu/student-services/financial-aid,Null,0,35.5092,-97.882,0.0,0.0
365480,Meridian Technology Center,Stillwater,OK,74074-1899,Oklahoma Board of Career and Technology Education,www.meridiantech.edu,www.meridiantech.edu/individual/financial-aid#netpricecalc,Null,0,36.107,-97.1084,0.0,0.0
366623,Northwest Technology Center-Alva,Alva,OK,73717,Oklahoma Board of Career and Technology Education,www.nwtech.edu,www.nwtech.edu,Null,0,36.7867,-98.6757,0.0,0.0
368364,Southwest Technology Center,Altus,OK,73521,Oklahoma Board of Career and Technology Education,www.swtech.edu,www.swtech.edu/admissions/generalinfo/NetPriceCalculator.htm,Null,0,34.6682,-99.3412,0.0,0.0
375656,Chisholm Trail Technology Center,Omega,OK,73764-6335,Oklahoma Board of Career and Technology Education,www.cttc.edu,www.cttc.edu,Null,0,35.8422,-98.2018,0.0,0.0
375683,Gordon Cooper Technology Center,Shawnee,OK,74804,Oklahoma Board of Career and Technology Education,www.gctech.org,www.gctech.org/sites/gordoncooper/uploads/npcalc.htm,Null,0,35.3803,-96.908,0.0,0.0
375692,Kiamichi Technology Center-Atoka,Atoka,OK,74525-0240,Oklahoma Board of Career and Technology Education,www.ktc.edu,www.ktc.edu,Null,0,34.3954,-96.153,0.0,0.0
375717,Kiamichi Technology Center-Hugo,Hugo,OK,74743,Oklahoma Board of Career and Technology Education,www.ktc.edu,www.ktc.edu/financialaid/tuitioncalculator.aspx,Null,0,34.0083,-95.4945,0.0,0.0
375726,Kiamichi Technology Center-McAlester,McAlester,OK,74501,Oklahoma Board of Career and Technology Education,www.ktc.edu/Template0.asp?pg=128,www.ktc.edu/netprice/npcalc.htm,Null,0,34.9242,-95.746,0.0,0.0
375735,Kiamichi Technology Center-Idabel,Idabel,OK,74745-2415,Oklahoma Board of Career and Technology Education,www.ktc.edu,www.ktc.edu,Null,0,33.9219,-94.775,0.0,0.0
375744,Kiamichi Technology Center-Poteau,Poteau,OK,74953,Oklahoma Board of Career and Technology Education,www.ktc.edu,www.ktc.edu,Null,0,35.0382,-94.634,0.0,0.0
375753,Kiamichi Technology Center-Spiro,Spiro,OK,74959,Oklahoma Board of Career and Technology Education,www.ktc.edu/locations/spiro.aspx,www.ktc.edu/netprice/npcalc.htm,Null,0,35.2404,-94.6288,0.0,0.0
375762,Kiamichi Technology Center-Talihina,Talihina,OK,74571,Oklahoma Board of Career and Technology Education,www.ktc.edu,www.ktc.edu/netprice/npcalc.htm,Null,0,34.7653,-95.092,0.0,0.0
405748,Kiamichi Technology Center-Stigler,Stigler,OK,74462-9601,Oklahoma Board of Career and Technology Education,www.ktc.edu,www.ktc.edu,Null,0,35.2484,-95.1082,0.0,0.0
407601,Northwest Technology Center-Fairview,Fairview,OK,73737,Oklahoma Board of Career and Technology Education,www.nwtech.edu,www.nwtech.edu,Null,0,36.262,-98.4967,0.0,0.0
418287,Tri County Technology Center,Bartlesville,OK,74006-6029,Oklahoma Board of Career and Technology Education,www.tctc.org,www.tctc.org,Null,0,36.7272,-95.9093,0.0,0.0
418296,Indian Capital Technology Center-Muskogee,Muskogee,OK,74403-1889,Oklahoma Board of Career and Technology Education,www.ictctech.com,www.ictctech.com/financialaid.htm,Null,0,35.7749,-95.3119,0.0,0.0
418302,Western Technology Center,Burns Flat,OK,73624-1469,Oklahoma Board of Career and Technology Education,www.westtech.edu,www.westtech.edu,Null,0,35.3528,-99.1857,0.0,0.0
418320,Mid-America Technology Center,Wayne,OK,73095-0210,Oklahoma Board of Career and Technology Education,www.matech.edu,www.matech.edu,Null,0,34.9125,-97.3642,0.0,0.0
418339,Northeast Technology Center-Pryor,Pryor,OK,74361,Oklahoma Board of Career and Technology Education,www.netech.edu,www.netech.edu/,Null,0,36.3091,-95.4251,0.0,0.0
418348,Eastern Oklahoma County Technology Center,Choctaw,OK,73020-9017,Oklahoma Board of Career and Technology Education,www.eoctech.edu,www.eoctech.edu/NetPriceCalculator/npcalc.htm,Null,0,35.5169,-97.267,0.0,0.0
418357,Wes Watkins Technology Center,Wetumka,OK,74883-6155,Oklahoma Board of Career and Technology Education,www.wwtech.org,www.wwtech.org,Null,0,35.2333,-96.2663,0.0,0.0
420459,Northeast Technology Center-Afton,Afton,OK,74331,Oklahoma Board of Career and Technology Education,www.netech.edu,www.netech.edu,Null,0,36.7304,-94.9291,0.0,0.0
421540,Indian Capital Technology Center-Sallisaw,Sallisaw,OK,74955,Oklahoma Board of Career and Technology Education,www.ictctech.com,www.ictctech.com,Null,0,35.4464,-94.7934,0.0,0.0
421559,Indian Capital Technology Center-Stilwell,Stilwell,OK,74960,Oklahoma Board of Career and Technology Education,www.ictctech.com,www.ictctech.com,Null,0,35.8416,-94.6344,0.0,0.0
431017,Mid-Del Technology Center,Midwest City,OK,73110-4825,Oklahoma Board of Career and Technology Education,www.middeltech.com,www.middeltech.com/downloads/NetPriceCalculator/npcalc.htm,Null,0,35.4552,-97.4026,0.0,0.0
432074,Northeast Technology Center-Kansas,Kansas,OK,74347,Oklahoma Board of Career and Technology Education,www.netech.edu,www.netech.edu/,Null,0,36.2098,-94.7784,0.0,0.0
